{
  "norad_id": 65645,
  "name": "STARLINK-35237",
  "history": [
    {
      "epoch": "2026-03-28T20:58:33.136896Z",
      "apogee_km": 475.90151062257064,
      "perigee_km": 474.4595726118141,
      "latitude_deg": 2.449449137710069e-05,
      "longitude_deg": 77.36816350702756,
      "height_km": 476.25430862622306,
      "semi_major_axis_km": 6853.317541617193,
      "eccentricity": 0.0001052,
      "inclination_deg": 53.1597,
      "raan_deg": 218.2944,
      "arg_perigee_deg": 104.0795,
      "mean_anomaly_deg": 256.0323,
      "mean_motion_rev_day": 15.30211564
    },
    {
      "epoch": "2026-03-28T20:58:33.137760Z",
      "apogee_km": 475.90151062257064,
      "perigee_km": 474.4595726118141,
      "latitude_deg": 2.448244396871184e-05,
      "longitude_deg": 77.36815988820979,
      "height_km": 476.25430862796765,
      "semi_major_axis_km": 6853.317541617193,
      "eccentricity": 0.0001052,
      "inclination_deg": 53.1597,
      "raan_deg": 218.2944,
      "arg_perigee_deg": 104.0795,
      "mean_anomaly_deg": 256.0323,
      "mean_motion_rev_day": 15.30211564
    },
    {
      "epoch": "2026-03-30T01:11:28.355136Z",
      "apogee_km": 476.55656849619663,
      "perigee_km": 473.43565167786346,
      "latitude_deg": 7.350053732175672e-05,
      "longitude_deg": 7.517561762863741,
      "height_km": 475.45540244517855,
      "semi_major_axis_km": 6853.13311008703,
      "eccentricity": 0.0002277,
      "inclination_deg": 53.1593,
      "raan_deg": 212.8326,
      "arg_perigee_deg": 73.721,
      "mean_anomaly_deg": 286.4042,
      "mean_motion_rev_day": 15.30273336
    },
    {
      "epoch": "2026-03-30T13:43:53.654592Z",
      "apogee_km": 477.1038353396907,
      "perigee_km": 473.6492533025412,
      "latitude_deg": 3.271651675745081e-05,
      "longitude_deg": 176.47130325568907,
      "height_km": 474.70732553758154,
      "semi_major_axis_km": 6853.513544321116,
      "eccentricity": 0.00025203,
      "inclination_deg": 53.1594,
      "raan_deg": 210.4068,
      "arg_perigee_deg": 24.8376,
      "mean_anomaly_deg": 335.2746,
      "mean_motion_rev_day": 15.30145921
    },
    {
      "epoch": "2026-03-30T18:26:03.088320Z",
      "apogee_km": 475.65453283905936,
      "perigee_km": 474.97288863137055,
      "latitude_deg": 2.7213667278888074e-05,
      "longitude_deg": 104.82716242285247,
      "height_km": 476.21071603207173,
      "semi_major_axis_km": 6853.450710735215,
      "eccentricity": 4.973e-05,
      "inclination_deg": 53.1578,
      "raan_deg": 209.4951,
      "arg_perigee_deg": 89.6915,
      "mean_anomaly_deg": 270.4143,
      "mean_motion_rev_day": 15.30166964
    },
    {
      "epoch": "2026-03-31T00:42:16.579584Z",
      "apogee_km": 475.8928616231133,
      "perigee_km": 474.71379574896673,
      "latitude_deg": 6.80951034913574e-05,
      "longitude_deg": 9.300562831098366,
      "height_km": 476.1770884458592,
      "semi_major_axis_km": 6853.44032868604,
      "eccentricity": 8.602e-05,
      "inclination_deg": 53.1575,
      "raan_deg": 208.2822,
      "arg_perigee_deg": 87.6107,
      "mean_anomaly_deg": 272.4993,
      "mean_motion_rev_day": 15.30170441
    },
    {
      "epoch": "2026-04-01T14:19:33.938976Z",
      "apogee_km": 475.8239023336828,
      "perigee_km": 474.68349812116503,
      "latitude_deg": -1.3228808295869155e-05,
      "longitude_deg": 156.15251389447715,
      "height_km": 475.5836686182075,
      "semi_major_axis_km": 6853.390700227424,
      "eccentricity": 8.32e-05,
      "inclination_deg": 53.1585,
      "raan_deg": 201.0016,
      "arg_perigee_deg": 2.7715,
      "mean_anomaly_deg": 357.329,
      "mean_motion_rev_day": 15.30187062
    },
    {
      "epoch": "2026-04-02T16:58:27.686496Z",
      "apogee_km": 476.1817281991616,
      "perigee_km": 474.2560722583148,
      "latitude_deg": 1.2492084693180673e-05,
      "longitude_deg": 110.17718076696875,
      "height_km": 476.01795397373223,
      "semi_major_axis_km": 6853.355900228738,
      "eccentricity": 0.00014049,
      "inclination_deg": 53.1611,
      "raan_deg": 195.8446,
      "arg_perigee_deg": 84.1005,
      "mean_anomaly_deg": 276.0156,
      "mean_motion_rev_day": 15.30198717
    },
    {
      "epoch": "2026-04-03T13:21:09.290592Z",
      "apogee_km": 476.2456365995131,
      "perigee_km": 474.80773795792265,
      "latitude_deg": -2.1781394516970708e-05,
      "longitude_deg": 159.7231010984106,
      "height_km": 476.64260296572337,
      "semi_major_axis_km": 6853.663687278718,
      "eccentricity": 0.0001049,
      "inclination_deg": 53.1582,
      "raan_deg": 191.9008,
      "arg_perigee_deg": 107.6269,
      "mean_anomaly_deg": 252.4846,
      "mean_motion_rev_day": 15.3009564
    },
    {
      "epoch": "2026-04-04T12:51:59.065920Z",
      "apogee_km": 476.08205723389165,
      "perigee_km": 474.2601738044623,
      "latitude_deg": 4.3256588513870876e-05,
      "longitude_deg": 161.496873275086,
      "height_km": 476.5754605371321,
      "semi_major_axis_km": 6853.308115519177,
      "eccentricity": 0.00013292,
      "inclination_deg": 53.1582,
      "raan_deg": 187.3476,
      "arg_perigee_deg": 123.7619,
      "mean_anomaly_deg": 236.3509,
      "mean_motion_rev_day": 15.30214721
    },
    {
      "epoch": "2026-04-05T12:22:46.334784Z",
      "apogee_km": 475.88475155013293,
      "perigee_km": 474.3775808150258,
      "latitude_deg": 4.339482330954753e-05,
      "longitude_deg": 163.28676846615062,
      "height_km": 476.22495772329216,
      "semi_major_axis_km": 6853.268166182579,
      "eccentricity": 0.00010996,
      "inclination_deg": 53.1591,
      "raan_deg": 182.8001,
      "arg_perigee_deg": 105.0384,
      "mean_anomaly_deg": 255.0739,
      "mean_motion_rev_day": 15.30228101
    },
    {
      "epoch": "2026-04-05T15:30:52.428096Z",
      "apogee_km": 475.9256144665487,
      "perigee_km": 474.29454166196956,
      "latitude_deg": -9.782916223494262e-06,
      "longitude_deg": 115.52368887153189,
      "height_km": 476.3153689709626,
      "semi_major_axis_km": 6853.247078064259,
      "eccentricity": 0.000119,
      "inclination_deg": 53.1586,
      "raan_deg": 182.1912,
      "arg_perigee_deg": 112.1231,
      "mean_anomaly_deg": 247.9896,
      "mean_motion_rev_day": 15.30235164
    },
    {
      "epoch": "2026-04-06T05:37:20.366400Z",
      "apogee_km": 476.2818746180974,
      "perigee_km": 473.9206599054951,
      "latitude_deg": -1.0578175045508657e-05,
      "longitude_deg": -99.40050767716068,
      "height_km": 475.99030737592943,
      "semi_major_axis_km": 6853.238267261796,
      "eccentricity": 0.00017227,
      "inclination_deg": 53.1596,
      "raan_deg": 179.4628,
      "arg_perigee_deg": 89.5936,
      "mean_anomaly_deg": 270.5262,
      "mean_motion_rev_day": 15.30238115
    },
    {
      "epoch": "2026-04-07T11:24:21.506688Z",
      "apogee_km": 476.24119989420615,
      "perigee_km": 474.263996995056,
      "latitude_deg": 3.6054289044509936e-05,
      "longitude_deg": 166.85620152777304,
      "height_km": 476.07867108479786,
      "semi_major_axis_km": 6853.389598444631,
      "eccentricity": 0.00014425,
      "inclination_deg": 53.1595,
      "raan_deg": 173.6974,
      "arg_perigee_deg": 85.8405,
      "mean_anomaly_deg": 274.2761,
      "mean_motion_rev_day": 15.30187431
    },
    {
      "epoch": "2026-04-08T14:03:15.861600Z",
      "apogee_km": 476.04467983094855,
      "perigee_km": 474.3471092729678,
      "latitude_deg": -3.740569804758578e-07,
      "longitude_deg": 120.8791800289851,
      "height_km": 475.932566929563,
      "semi_major_axis_km": 6853.332894551958,
      "eccentricity": 0.00012385,
      "inclination_deg": 53.1594,
      "raan_deg": 168.5413,
      "arg_perigee_deg": 79.037,
      "mean_anomaly_deg": 281.077,
      "mean_motion_rev_day": 15.30206422
    },
    {
      "epoch": "2026-04-09T12:00:00.623808Z",
      "apogee_km": 476.0274423965011,
      "perigee_km": 474.41690299091806,
      "latitude_deg": 5.094557602074258e-05,
      "longitude_deg": 146.54232569296775,
      "height_km": 476.11565548681756,
      "semi_major_axis_km": 6853.359172693709,
      "eccentricity": 0.0001175,
      "inclination_deg": 53.1605,
      "raan_deg": 164.2922,
      "arg_perigee_deg": 89.6608,
      "mean_anomaly_deg": 270.4528,
      "mean_motion_rev_day": 15.30197621
    },
    {
      "epoch": "2026-04-10T13:04:51.691008Z",
      "apogee_km": 475.7700731701507,
      "perigee_km": 474.59404361973066,
      "latitude_deg": 3.580496237762968e-05,
      "longitude_deg": 124.44749766845274,
      "height_km": 475.76483688410497,
      "semi_major_axis_km": 6853.319058394941,
      "eccentricity": 8.58e-05,
      "inclination_deg": 53.1592,
      "raan_deg": 159.4402,
      "arg_perigee_deg": 57.4995,
      "mean_anomaly_deg": 302.6089,
      "mean_motion_rev_day": 15.30211056
    },
    {
      "epoch": "2026-04-11T12:35:39.742656Z",
      "apogee_km": 475.6973021498279,
      "perigee_km": 474.77894988294156,
      "latitude_deg": -6.304988318313176e-05,
      "longitude_deg": 126.23004803537303,
      "height_km": 476.2331872592659,
      "semi_major_axis_km": 6853.3751260163845,
      "eccentricity": 6.7e-05,
      "inclination_deg": 53.1581,
      "raan_deg": 154.8887,
      "arg_perigee_deg": 102.115,
      "mean_anomaly_deg": 257.9925,
      "mean_motion_rev_day": 15.30192278
    },
    {
      "epoch": "2026-04-12T19:56:42.440928Z",
      "apogee_km": 476.9370339645011,
      "perigee_km": 473.3867510062373,
      "latitude_deg": 1.9919465379378683e-05,
      "longitude_deg": 8.611636359030635,
      "height_km": 475.5457425658305,
      "semi_major_axis_km": 6853.298892485369,
      "eccentricity": 0.00025902,
      "inclination_deg": 53.1587,
      "raan_deg": 148.819,
      "arg_perigee_deg": 73.2247,
      "mean_anomaly_deg": 286.9038,
      "mean_motion_rev_day": 15.3021781
    }
  ]
}